{
  "links" : {
    "next" : "https://api.nasa.gov/neo/rest/v1/feed?start_date=2003-11-16&end_date=2003-11-16&detailed=true&api_key=t0TVs3DtDT2H8Oy2Zy8m2eVrNsAVKAexjcZXUckd",
    "prev" : "https://api.nasa.gov/neo/rest/v1/feed?start_date=2003-11-14&end_date=2003-11-14&detailed=true&api_key=t0TVs3DtDT2H8Oy2Zy8m2eVrNsAVKAexjcZXUckd",
    "self" : "https://api.nasa.gov/neo/rest/v1/feed?start_date=2003-11-15&end_date=2003-11-15&detailed=true&api_key=t0TVs3DtDT2H8Oy2Zy8m2eVrNsAVKAexjcZXUckd"
  },
  "element_count" : 7,
  "near_earth_objects" : {
    "2003-11-15" : [ {
      "links" : {
        "self" : "https://api.nasa.gov/neo/rest/v1/neo/3712665?api_key=t0TVs3DtDT2H8Oy2Zy8m2eVrNsAVKAexjcZXUckd"
      },
      "neo_reference_id" : "3712665",
      "name" : "(2015 DJ215)",
      "nasa_jpl_url" : "http://ssd.jpl.nasa.gov/sbdb.cgi?sstr=3712665",
      "absolute_magnitude_h" : 24.0,
      "estimated_diameter" : {
        "kilometers" : {
          "estimated_diameter_min" : 0.0421264611,
          "estimated_diameter_max" : 0.0941976306
        },
        "meters" : {
          "estimated_diameter_min" : 42.1264610556,
          "estimated_diameter_max" : 94.1976305719
        },
        "miles" : {
          "estimated_diameter_min" : 0.0261761612,
          "estimated_diameter_max" : 0.0585316759
        },
        "feet" : {
          "estimated_diameter_min" : 138.2101784897,
          "estimated_diameter_max" : 309.0473542854
        }
      },
      "is_potentially_hazardous_asteroid" : false,
      "close_approach_data" : [ {
        "close_approach_date" : "2003-11-15",
        "epoch_date_close_approach" : 1068883200000,
        "relative_velocity" : {
          "kilometers_per_second" : "6.1501496399",
          "kilometers_per_hour" : "22140.5387037976",
          "miles_per_hour" : "13757.2697295902"
        },
        "miss_distance" : {
          "astronomical" : "0.3198878781",
          "lunar" : "124.4363861084",
          "kilometers" : "47854544",
          "miles" : "29735436"
        },
        "orbiting_body" : "Earth"
      } ],
      "orbital_data" : {
        "orbit_id" : "12",
        "orbit_determination_date" : "2017-04-06 08:35:18",
        "orbit_uncertainty" : "4",
        "minimum_orbit_intersection" : ".0109591",
        "jupiter_tisserand_invariant" : "5.516",
        "epoch_osculation" : "2458000.5",
        "eccentricity" : ".1483967510987464",
        "semi_major_axis" : "1.132196999251865",
        "inclination" : "4.069632203267333",
        "ascending_node_longitude" : "2.583070805553164",
        "orbital_period" : "440.0291283039898",
        "perihelion_distance" : ".964182642959138",
        "perihelion_argument" : "233.2488045964447",
        "aphelion_distance" : "1.300211355544591",
        "perihelion_time" : "2458030.211924425665",
        "mean_anomaly" : "335.6918528678629",
        "mean_motion" : ".8181276575656545",
        "equinox" : "J2000"
      }
    } ]
  }
}